COSMOS 2251 DEB         
1 35580U 93036ALX 26115.24956236  .00001216  00000+0  82160-3 0  9993
2 35580  73.9028 311.5623 0277162 291.6382  65.5430 13.84540115641049
COSMOS 2251 DEB         
1 35583U 93036AMA 26115.62837951  .00000566  00000+0  52703-3 0  9997
2 35583  73.9195 354.9840 0383189 354.6392   5.0663 13.55685692842269
COSMOS 2251 DEB         
1 35585U 93036AMC 26113.04762652  .00001197  00000+0  89625-3 0  9992
2 35585  73.9686 129.1147 0306187  13.9901  17.7203 13.75709589658698
COSMOS 2251 DEB         
1 35586U 93036AMD 26115.67405561  .00000472  00000+0  44964-3 0  9999
2 35586  74.0197  87.8930 0404764 294.7150 250.5641 13.52230491621928
COSMOS 2251 DEB         
1 35587U 93036AME 26115.45785976  .00000904  00000+0  13856-3 0  9993
2 35587  74.0024 157.8956 0101905 311.2263  48.0158 14.71934641683139
COSMOS 2251 DEB         
1 35593U 93036AML 26115.09440283  .00001906  00000+0  76295-3 0  9998
2 35593  74.0859  48.2885 0100745  21.7708 338.7675 14.26264987869660
COSMOS 2251 DEB         
1 35594U 93036AMM 26115.47757989  .00011023  00000+0  10819-2 0  9995
2 35594  73.8055 195.1507 0030568 279.2227  80.5497 14.91923054901772
COSMOS 2251 DEB         
1 35602U 93036AMV 26114.63974579  .00014775  00000+0  31689-3 0  9994
2 35602  73.9926 254.8987 0077530 284.4451  89.4583 15.41488242921353
COSMOS 2251 DEB         
1 35606U 93036AMZ 26114.37839343  .00000493  00000+0  50395-3 0  9995
2 35606  73.8077 159.3727 0455001 343.5684  15.1063 13.41379340628182
COSMOS 2251 DEB         
1 35611U 93036ANE 26114.88069765  .00008601  00000+0  12219-2 0  9991
2 35611  74.0186 278.8244 0018274 325.0314  34.9659 14.76935363892539
COSMOS 2251 DEB         
1 35645U 93036ANL 26115.46798346  .00003868  00000+0  10360-2 0  9992
2 35645  73.9630 196.9116 0069206 321.9180  37.7097 14.47154322887057
COSMOS 2251 DEB         
1 35647U 93036ANN 26115.12685814  .00001602  00000+0  46733-3 0  9990
2 35647  74.0228  46.2787 0046219 117.2298 243.3580 14.44312097695893
