[{"OBJECT_NAME":"COSMOS 2251 DEB","OBJECT_ID":"1993-036ALX","EPOCH":"2026-04-25T05:59:22.187904","MEAN_MOTION":13.84540115,"ECCENTRICITY":0.0277162,"INCLINATION":73.9028,"RA_OF_ASC_NODE":311.5623,"ARG_OF_PERICENTER":291.6382,"MEAN_ANOMALY":65.543,"EPHEMERIS_TYPE":0,"CLASSIFICATION_TYPE":"U","NORAD_CAT_ID":35580,"ELEMENT_SET_NO":999,"REV_AT_EPOCH":64104,"BSTAR":0.0008216,"MEAN_MOTION_DOT":1.216e-5,"MEAN_MOTION_DDOT":0},{"OBJECT_NAME":"COSMOS 2251 DEB","OBJECT_ID":"1993-036AMA","EPOCH":"2026-04-25T15:04:51.988800","MEAN_MOTION":13.55685692,"ECCENTRICITY":0.0383189,"INCLINATION":73.9195,"RA_OF_ASC_NODE":354.984,"ARG_OF_PERICENTER":354.6392,"MEAN_ANOMALY":5.0663,"EPHEMERIS_TYPE":0,"CLASSIFICATION_TYPE":"U","NORAD_CAT_ID":35583,"ELEMENT_SET_NO":999,"REV_AT_EPOCH":84226,"BSTAR":0.00052703,"MEAN_MOTION_DOT":5.66e-6,"MEAN_MOTION_DDOT":0},{"OBJECT_NAME":"COSMOS 2251 DEB","OBJECT_ID":"1993-036AMC","EPOCH":"2026-04-23T01:08:34.931328","MEAN_MOTION":13.75709589,"ECCENTRICITY":0.03061876,"INCLINATION":73.9686,"RA_OF_ASC_NODE":129.1147,"ARG_OF_PERICENTER":13.9901,"MEAN_ANOMALY":17.7203,"EPHEMERIS_TYPE":0,"CLASSIFICATION_TYPE":"U","NORAD_CAT_ID":35585,"ELEMENT_SET_NO":999,"REV_AT_EPOCH":65869,"BSTAR":0.00089624767,"MEAN_MOTION_DOT":1.197e-5,"MEAN_MOTION_DDOT":0},{"OBJECT_NAME":"COSMOS 2251 DEB","OBJECT_ID":"1993-036AMD","EPOCH":"2026-04-25T16:10:38.403840","MEAN_MOTION":13.52230491,"ECCENTRICITY":0.0404764,"INCLINATION":74.0197,"RA_OF_ASC_NODE":87.893,"ARG_OF_PERICENTER":294.715,"MEAN_ANOMALY":250.5641,"EPHEMERIS_TYPE":0,"CLASSIFICATION_TYPE":"U","NORAD_CAT_ID":35586,"ELEMENT_SET_NO":999,"REV_AT_EPOCH":62192,"BSTAR":0.00044964,"MEAN_MOTION_DOT":4.72e-6,"MEAN_MOTION_DDOT":0},{"OBJECT_NAME":"COSMOS 2251 DEB","OBJECT_ID":"1993-036AME","EPOCH":"2026-04-25T10:59:19.083264","MEAN_MOTION":14.71934641,"ECCENTRICITY":0.0101905,"INCLINATION":74.0024,"RA_OF_ASC_NODE":157.8956,"ARG_OF_PERICENTER":311.2263,"MEAN_ANOMALY":48.0158,"EPHEMERIS_TYPE":0,"CLASSIFICATION_TYPE":"U","NORAD_CAT_ID":35587,"ELEMENT_SET_NO":999,"REV_AT_EPOCH":68313,"BSTAR":0.00013856,"MEAN_MOTION_DOT":9.04e-6,"MEAN_MOTION_DDOT":0},{"OBJECT_NAME":"COSMOS 2251 DEB","OBJECT_ID":"1993-036AML","EPOCH":"2026-04-25T02:15:56.404512","MEAN_MOTION":14.26264987,"ECCENTRICITY":0.01007451,"INCLINATION":74.0859,"RA_OF_ASC_NODE":48.2885,"ARG_OF_PERICENTER":21.7708,"MEAN_ANOMALY":338.7675,"EPHEMERIS_TYPE":0,"CLASSIFICATION_TYPE":"U","NORAD_CAT_ID":35593,"ELEMENT_SET_NO":999,"REV_AT_EPOCH":86966,"BSTAR":0.0007629504,"MEAN_MOTION_DOT":1.906e-5,"MEAN_MOTION_DDOT":0},{"OBJECT_NAME":"COSMOS 2251 DEB","OBJECT_ID":"1993-036AMM","EPOCH":"2026-04-25T11:27:42.901632","MEAN_MOTION":14.91923054,"ECCENTRICITY":0.0030568,"INCLINATION":73.8055,"RA_OF_ASC_NODE":195.1507,"ARG_OF_PERICENTER":279.2227,"MEAN_ANOMALY":80.5497,"EPHEMERIS_TYPE":0,"CLASSIFICATION_TYPE":"U","NORAD_CAT_ID":35594,"ELEMENT_SET_NO":999,"REV_AT_EPOCH":90177,"BSTAR":0.0010819,"MEAN_MOTION_DOT":0.00011023,"MEAN_MOTION_DDOT":0},{"OBJECT_NAME":"COSMOS 2251 DEB","OBJECT_ID":"1993-036AMV","EPOCH":"2026-04-24T15:21:14.036256","MEAN_MOTION":15.41488242,"ECCENTRICITY":0.00775307,"INCLINATION":73.9926,"RA_OF_ASC_NODE":254.8987,"ARG_OF_PERICENTER":284.4451,"MEAN_ANOMALY":89.4583,"EPHEMERIS_TYPE":0,"CLASSIFICATION_TYPE":"U","NORAD_CAT_ID":35602,"ELEMENT_SET_NO":999,"REV_AT_EPOCH":92135,"BSTAR":0.00031688988,"MEAN_MOTION_DOT":0.00014775,"MEAN_MOTION_DDOT":0},{"OBJECT_NAME":"COSMOS 2251 DEB","OBJECT_ID":"1993-036AMZ","EPOCH":"2026-04-24T09:04:53.192352","MEAN_MOTION":13.4137934,"ECCENTRICITY":0.04550016,"INCLINATION":73.8077,"RA_OF_ASC_NODE":159.3727,"ARG_OF_PERICENTER":343.5684,"MEAN_ANOMALY":15.1063,"EPHEMERIS_TYPE":0,"CLASSIFICATION_TYPE":"U","NORAD_CAT_ID":35606,"ELEMENT_SET_NO":999,"REV_AT_EPOCH":62818,"BSTAR":0.00050395228,"MEAN_MOTION_DOT":4.93e-6,"MEAN_MOTION_DDOT":0},{"OBJECT_NAME":"COSMOS 2251 DEB","OBJECT_ID":"1993-036ANE","EPOCH":"2026-04-24T21:08:12.276960","MEAN_MOTION":14.76935363,"ECCENTRICITY":0.0018274,"INCLINATION":74.0186,"RA_OF_ASC_NODE":278.8244,"ARG_OF_PERICENTER":325.0314,"MEAN_ANOMALY":34.9659,"EPHEMERIS_TYPE":0,"CLASSIFICATION_TYPE":"U","NORAD_CAT_ID":35611,"ELEMENT_SET_NO":999,"REV_AT_EPOCH":89253,"BSTAR":0.0012219,"MEAN_MOTION_DOT":8.601e-5,"MEAN_MOTION_DDOT":0},{"OBJECT_NAME":"COSMOS 2251 DEB","OBJECT_ID":"1993-036ANL","EPOCH":"2026-04-25T11:13:53.770080","MEAN_MOTION":14.47154322,"ECCENTRICITY":0.0069207,"INCLINATION":73.963,"RA_OF_ASC_NODE":196.9116,"ARG_OF_PERICENTER":321.918,"MEAN_ANOMALY":37.7097,"EPHEMERIS_TYPE":0,"CLASSIFICATION_TYPE":"U","NORAD_CAT_ID":35645,"ELEMENT_SET_NO":999,"REV_AT_EPOCH":88705,"BSTAR":0.001036,"MEAN_MOTION_DOT":3.868e-5,"MEAN_MOTION_DDOT":0},{"OBJECT_NAME":"COSMOS 2251 DEB","OBJECT_ID":"1993-036ANN","EPOCH":"2026-04-25T03:02:40.543296","MEAN_MOTION":14.44312097,"ECCENTRICITY":0.00462199,"INCLINATION":74.0228,"RA_OF_ASC_NODE":46.2787,"ARG_OF_PERICENTER":117.2298,"MEAN_ANOMALY":243.358,"EPHEMERIS_TYPE":0,"CLASSIFICATION_TYPE":"U","NORAD_CAT_ID":35647,"ELEMENT_SET_NO":999,"REV_AT_EPOCH":69589,"BSTAR":0.00046732788,"MEAN_MOTION_DOT":1.602e-5,"MEAN_MOTION_DDOT":0}]
